[{"OBJECT_NAME":"STARLINK-4120","OBJECT_ID":"2022-101L","EPOCH":"2026-03-09T07:57:27.152928","MEAN_MOTION":15.08821178,"ECCENTRICITY":0.00015217,"INCLINATION":53.2175,"RA_OF_ASC_NODE":75.6981,"ARG_OF_PERICENTER":88.4974,"MEAN_ANOMALY":271.6193,"EPHEMERIS_TYPE":0,"CLASSIFICATION_TYPE":"U","NORAD_CAT_ID":53537,"ELEMENT_SET_NO":999,"REV_AT_EPOCH":19611,"BSTAR":5.2279907e-5,"MEAN_MOTION_DOT":5.44e-6,"MEAN_MOTION_DDOT":0},{"OBJECT_NAME":"FENGYUN 1C DEB","OBJECT_ID":"1999-025DZE","EPOCH":"2026-02-28T06:22:54.338880","MEAN_MOTION":15.08907087,"ECCENTRICITY":0.00232464,"INCLINATION":99.4552,"RA_OF_ASC_NODE":173.2368,"ARG_OF_PERICENTER":218.3208,"MEAN_ANOMALY":141.6363,"EPHEMERIS_TYPE":0,"CLASSIFICATION_TYPE":"U","NORAD_CAT_ID":36684,"ELEMENT_SET_NO":999,"REV_AT_EPOCH":67065,"BSTAR":0.0055309563,"MEAN_MOTION_DOT":0.00088715,"MEAN_MOTION_DDOT":0}]
